start=new Date('2022-05-15T00:00:00.000Z').valueOf();
sats=[{"COUNTRY_CODE":"US","MEAN_MOTION_DDOT":"0.0000000000000","ELEMENT_SET_NO":"999","APOAPSIS":"548.271","CENTER_NAME":"EARTH","BSTAR":"0.00003901900000","SITE":"AFETR","CLASSIFICATION_TYPE":"U","ARG_OF_PERICENTER":"71.7087","RCS_SIZE":"LARGE","PERIAPSIS":"546.142","RA_OF_ASC_NODE":"244.0679","OBJECT_NAME":"STARLINK-2504","SEMIMAJOR_AXIS":"6925.342","ECCENTRICITY":"0.00015370","GP_ID":"203562224","MEAN_ANOMALY":"288.4069","OBJECT_ID":"2021-036BE","REF_FRAME":"TEME","EPHEMERIS_TYPE":"0","NORAD_CAT_ID":"48328","PERIOD":"95.592","OBJECT_TYPE":"PAYLOAD","MEAN_MOTION_DOT":"0.00000300","DECAY_DATE":null,"INCLINATION":"53.0562","FILE":"3445938","MEAN_MOTION":"15.06402288","EPOCH":"2022-05-14T16:17:23.358048","REV_AT_EPOCH":"5777","LAUNCH_DATE":"2021-04-29","TIME_SYSTEM":"UTC","MEAN_ELEMENT_THEORY":"SGP4","TLE_LINE2":"2 48328  53.0562 244.0679 0001537  71.7087 288.4069 15.06402288 57775","TLE_LINE1":"1 48328U 21036BE  22134.67874257  .00000300  00000-0  39019-4 0  9994"},{"PERIAPSIS":"546.177","RCS_SIZE":"LARGE","ARG_OF_PERICENTER":"67.2490","BSTAR":"-0.00010670000000","CLASSIFICATION_TYPE":"U","SITE":"AFETR","ELEMENT_SET_NO":"999","COUNTRY_CODE":"US","MEAN_MOTION_DDOT":"0.0000000000000","CENTER_NAME":"EARTH","APOAPSIS":"548.296","OBJECT_ID":"2021-036BF","GP_ID":"203562470","MEAN_ANOMALY":"292.8661","OBJECT_NAME":"STARLINK-2510","ECCENTRICITY":"0.00015300","SEMIMAJOR_AXIS":"6925.371","RA_OF_ASC_NODE":"243.7922","INCLINATION":"53.0542","FILE":"3445938","MEAN_MOTION_DOT":"-0.00001870","OBJECT_TYPE":"PAYLOAD","PERIOD":"95.593","DECAY_DATE":null,"EPHEMERIS_TYPE":"0","NORAD_CAT_ID":"48329","REF_FRAME":"TEME","TLE_LINE1":"1 48329U 21036BF  22134.74141305 -.00001870  00000-0 -10670-3 0  9990","TIME_SYSTEM":"UTC","TLE_LINE2":"2 48329  53.0542 243.7922 0001530  67.2490 292.8661 15.06392604 57780","MEAN_ELEMENT_THEORY":"SGP4","LAUNCH_DATE":"2021-04-29","REV_AT_EPOCH":"5778","MEAN_MOTION":"15.06392604","EPOCH":"2022-05-14T17:47:38.087520"},{"MEAN_MOTION":"15.06398051","EPOCH":"2022-05-14T17:42:19.670688","LAUNCH_DATE":"2021-04-29","REV_AT_EPOCH":"5778","TIME_SYSTEM":"UTC","MEAN_ELEMENT_THEORY":"SGP4","TLE_LINE2":"2 48330  53.0547 243.8067 0001477  66.0601 294.0543 15.06398051 57784","TLE_LINE1":"1 48330U 21036BG  22134.73772767 -.00001031  00000-0 -50308-4 0  9995","REF_FRAME":"TEME","NORAD_CAT_ID":"48330","EPHEMERIS_TYPE":"0","MEAN_MOTION_DOT":"-0.00001031","OBJECT_TYPE":"PAYLOAD","PERIOD":"95.592","DECAY_DATE":null,"INCLINATION":"53.0547","FILE":"3445938","RA_OF_ASC_NODE":"243.8067","OBJECT_NAME":"STARLINK-2501","ECCENTRICITY":"0.00014770","SEMIMAJOR_AXIS":"6925.355","GP_ID":"203563226","MEAN_ANOMALY":"294.0543","OBJECT_ID":"2021-036BG","ELEMENT_SET_NO":"999","COUNTRY_CODE":"US","MEAN_MOTION_DDOT":"0.0000000000000","CENTER_NAME":"EARTH","APOAPSIS":"548.242","BSTAR":"-0.00005030800000","CLASSIFICATION_TYPE":"U","SITE":"AFETR","ARG_OF_PERICENTER":"66.0601","PERIAPSIS":"546.197","RCS_SIZE":"LARGE"},{"REV_AT_EPOCH":"5779","LAUNCH_DATE":"2021-04-29","MEAN_MOTION":"15.06399163","EPOCH":"2022-05-14T19:12:33.347808","TLE_LINE1":"1 48331U 21036BH  22134.80038597 -.00001467  00000-0 -79590-4 0  9997","TIME_SYSTEM":"UTC","MEAN_ELEMENT_THEORY":"SGP4","TLE_LINE2":"2 48331  53.0538 243.5296 0001630  64.7385 295.3773 15.06399163 57796","NORAD_CAT_ID":"48331","EPHEMERIS_TYPE":"0","REF_FRAME":"TEME","INCLINATION":"53.0538","FILE":"3445938","OBJECT_TYPE":"PAYLOAD","MEAN_MOTION_DOT":"-0.00001467","PERIOD":"95.592","DECAY_DATE":null,"OBJECT_NAME":"STARLINK-2514","SEMIMAJOR_AXIS":"6925.351","ECCENTRICITY":"0.00016300","RA_OF_ASC_NODE":"243.5296","OBJECT_ID":"2021-036BH","GP_ID":"203563945","MEAN_ANOMALY":"295.3773","BSTAR":"-0.00007959000000","SITE":"AFETR","CLASSIFICATION_TYPE":"U","MEAN_MOTION_DDOT":"0.0000000000000","COUNTRY_CODE":"US","ELEMENT_SET_NO":"999","APOAPSIS":"548.345","CENTER_NAME":"EARTH","RCS_SIZE":"LARGE","PERIAPSIS":"546.087","ARG_OF_PERICENTER":"64.7385"},{"EPOCH":"2022-05-14T17:35:38.561280","MEAN_MOTION":"15.06401105","LAUNCH_DATE":"2021-04-29","REV_AT_EPOCH":"5778","MEAN_ELEMENT_THEORY":"SGP4","TLE_LINE2":"2 48332  53.0529 243.8182 0001725  56.5960 303.5194 15.06401105 57785","TIME_SYSTEM":"UTC","TLE_LINE1":"1 48332U 21036BJ  22134.73308520 -.00001003  00000-0 -48460-4 0  9994","REF_FRAME":"TEME","EPHEMERIS_TYPE":"0","NORAD_CAT_ID":"48332","DECAY_DATE":null,"OBJECT_TYPE":"PAYLOAD","MEAN_MOTION_DOT":"-0.00001003","PERIOD":"95.592","INCLINATION":"53.0529","FILE":"3445938","RA_OF_ASC_NODE":"243.8182","ECCENTRICITY":"0.00017250","SEMIMAJOR_AXIS":"6925.345","OBJECT_NAME":"STARLINK-2511","MEAN_ANOMALY":"303.5194","GP_ID":"203562724","OBJECT_ID":"2021-036BJ","CENTER_NAME":"EARTH","APOAPSIS":"548.405","ELEMENT_SET_NO":"999","MEAN_MOTION_DDOT":"0.0000000000000","COUNTRY_CODE":"US","CLASSIFICATION_TYPE":"U","SITE":"AFETR","BSTAR":"-0.00004846000000","ARG_OF_PERICENTER":"56.5960","PERIAPSIS":"546.016","RCS_SIZE":"LARGE"},{"OBJECT_ID":"2021-036BK","MEAN_ANOMALY":"296.9601","GP_ID":"203562969","ECCENTRICITY":"0.00016440","SEMIMAJOR_AXIS":"6925.341","OBJECT_NAME":"STARLINK-2518","RA_OF_ASC_NODE":"243.8429","PERIAPSIS":"546.068","RCS_SIZE":"LARGE","ARG_OF_PERICENTER":"63.1556","CLASSIFICATION_TYPE":"U","SITE":"AFETR","BSTAR":"-0.00005624300000","CENTER_NAME":"EARTH","APOAPSIS":"548.345","ELEMENT_SET_NO":"999","COUNTRY_CODE":"US","MEAN_MOTION_DDOT":"0.0000000000000","TLE_LINE1":"1 48333U 21036BK  22134.72666097 -.00001119  00000-0 -56243-4 0  9996","MEAN_ELEMENT_THEORY":"SGP4","TLE_LINE2":"2 48333  53.0544 243.8429 0001644  63.1556 296.9601 15.06402381 57787","TIME_SYSTEM":"UTC","LAUNCH_DATE":"2021-04-29","REV_AT_EPOCH":"5778","EPOCH":"2022-05-14T17:26:23.507808","MEAN_MOTION":"15.06402381","INCLINATION":"53.0544","FILE":"3445938","DECAY_DATE":null,"MEAN_MOTION_DOT":"-0.00001119","OBJECT_TYPE":"PAYLOAD","PERIOD":"95.592","NORAD_CAT_ID":"48333","EPHEMERIS_TYPE":"0","REF_FRAME":"TEME"},{"RCS_SIZE":"LARGE","PERIAPSIS":"546.129","ARG_OF_PERICENTER":"61.6136","BSTAR":"-0.00000768800000","SITE":"AFETR","CLASSIFICATION_TYPE":"U","MEAN_MOTION_DDOT":"0.0000000000000","COUNTRY_CODE":"US","ELEMENT_SET_NO":"999","APOAPSIS":"548.309","CENTER_NAME":"EARTH","OBJECT_ID":"2021-036BL","GP_ID":"203563726","MEAN_ANOMALY":"298.5012","OBJECT_NAME":"STARLINK-2470","SEMIMAJOR_AXIS":"6925.354","ECCENTRICITY":"0.00015740","RA_OF_ASC_NODE":"244.4563","INCLINATION":"53.0537","FILE":"3445938","PERIOD":"95.592","OBJECT_TYPE":"PAYLOAD","MEAN_MOTION_DOT":"-0.00000396","DECAY_DATE":null,"NORAD_CAT_ID":"48334","EPHEMERIS_TYPE":"0","REF_FRAME":"TEME","TLE_LINE1":"1 48334U 21036BL  22134.59028129 -.00000396  00000-0 -76880-5 0  9996","TIME_SYSTEM":"UTC","TLE_LINE2":"2 48334  53.0537 244.4563 0001574  61.6136 298.5012 15.06398260 57767","MEAN_ELEMENT_THEORY":"SGP4","REV_AT_EPOCH":"5776","LAUNCH_DATE":"2021-04-29","MEAN_MOTION":"15.06398260","EPOCH":"2022-05-14T14:10:00.303456"},{"REF_FRAME":"TEME","NORAD_CAT_ID":"48335","EPHEMERIS_TYPE":"0","OBJECT_TYPE":"PAYLOAD","PERIOD":"95.592","MEAN_MOTION_DOT":"-0.00000600","DECAY_DATE":null,"INCLINATION":"53.0572","FILE":"3445938","MEAN_MOTION":"15.06405732","EPOCH":"2022-05-14T17:15:46.345824","REV_AT_EPOCH":"5778","LAUNCH_DATE":"2021-04-29","TIME_SYSTEM":"UTC","MEAN_ELEMENT_THEORY":"SGP4","TLE_LINE2":"2 48335  53.0572 243.8995 0001603  82.2912 277.8259 15.06405732 57781","TLE_LINE1":"1 48335U 21036BM  22134.71928641 -.00000600  00000-0 -21381-4 0  9992","COUNTRY_CODE":"US","MEAN_MOTION_DDOT":"0.0000000000000","ELEMENT_SET_NO":"999","APOAPSIS":"548.306","CENTER_NAME":"EARTH","BSTAR":"-0.00002138100000","SITE":"AFETR","CLASSIFICATION_TYPE":"U","ARG_OF_PERICENTER":"82.2912","RCS_SIZE":"LARGE","PERIAPSIS":"546.086","RA_OF_ASC_NODE":"243.8995","OBJECT_NAME":"STARLINK-2441","SEMIMAJOR_AXIS":"6925.331","ECCENTRICITY":"0.00016030","GP_ID":"203563446","MEAN_ANOMALY":"277.8259","OBJECT_ID":"2021-036BM"},{"EPHEMERIS_TYPE":"0","NORAD_CAT_ID":"48353","REF_FRAME":"TEME","FILE":"3445938","INCLINATION":"53.0549","OBJECT_TYPE":"PAYLOAD","MEAN_MOTION_DOT":"-0.00000175","PERIOD":"95.593","DECAY_DATE":null,"REV_AT_EPOCH":"5677","LAUNCH_DATE":"2021-05-04","MEAN_MOTION":"15.06392815","EPOCH":"2022-05-14T17:23:44.609568","TLE_LINE1":"1 48353U 21038A   22134.72482187 -.00000175  00000-0  71497-5 0  9995","TIME_SYSTEM":"UTC","TLE_LINE2":"2 48353  53.0549 143.8715 0002382  41.5243 318.5927 15.06392815 56774","MEAN_ELEMENT_THEORY":"SGP4","BSTAR":"0.00000714970000","SITE":"AFETR","CLASSIFICATION_TYPE":"U","MEAN_MOTION_DDOT":"0.0000000000000","COUNTRY_CODE":"US","ELEMENT_SET_NO":"999","APOAPSIS":"548.885","CENTER_NAME":"EARTH","RCS_SIZE":"LARGE","PERIAPSIS":"545.586","ARG_OF_PERICENTER":"41.5243","OBJECT_NAME":"STARLINK-2613","SEMIMAJOR_AXIS":"6925.371","ECCENTRICITY":"0.00023820","RA_OF_ASC_NODE":"143.8715","OBJECT_ID":"2021-038A","GP_ID":"203562971","MEAN_ANOMALY":"318.5927"},{"TLE_LINE1":"1 48354U 21038B   22134.72114421 -.00001702  00000-0 -95430-4 0  9999","TIME_SYSTEM":"UTC","MEAN_ELEMENT_THEORY":"SGP4","TLE_LINE2":"2 48354  53.0556 143.8881 0001967  46.9314 313.1839 15.06390295 56776","REV_AT_EPOCH":"5677","LAUNCH_DATE":"2021-05-04","MEAN_MOTION":"15.06390295","EPOCH":"2022-05-14T17:18:26.859744","INCLINATION":"53.0556","FILE":"3445938","OBJECT_TYPE":"PAYLOAD","PERIOD":"95.593","MEAN_MOTION_DOT":"-0.00001702","DECAY_DATE":null,"EPHEMERIS_TYPE":"0","NORAD_CAT_ID":"48354","REF_FRAME":"TEME","OBJECT_ID":"2021-038B","GP_ID":"203563728","MEAN_ANOMALY":"313.1839","OBJECT_NAME":"STARLINK-2674","SEMIMAJOR_AXIS":"6925.378","ECCENTRICITY":"0.00019670","RA_OF_ASC_NODE":"143.8881","RCS_SIZE":"LARGE","PERIAPSIS":"545.881","ARG_OF_PERICENTER":"46.9314","BSTAR":"-0.00009543000000","SITE":"AFETR","CLASSIFICATION_TYPE":"U","MEAN_MOTION_DDOT":"0.0000000000000","COUNTRY_CODE":"US","ELEMENT_SET_NO":"999","APOAPSIS":"548.606","CENTER_NAME":"EARTH"}];
